{"fetched_at":"2026-07-07T07:58:12.386Z","source":"https://celestrak.org/NORAD/elements/gp.php?GROUP=planet&FORMAT=JSON","constellation":"superdove","records":[{"OBJECT_NAME":"FLOCK 4BE-17","OBJECT_ID":"2024-149AA","EPOCH":"2026-07-06T17:06:59.730912","CLASSIFICATION_TYPE":"U","MEAN_MOTION":15.40389,"ECCENTRICITY":0.0003807,"INCLINATION":97.3762,"RA_OF_ASC_NODE":271.2433,"ARG_OF_PERICENTER":168.593,"MEAN_ANOMALY":191.5403,"EPHEMERIS_TYPE":0,"NORAD_CAT_ID":60492,"ELEMENT_SET_NO":999,"REV_AT_EPOCH":10526,"BSTAR":0.00032854,"MEAN_MOTION_DOT":0.00013202,"MEAN_MOTION_DDOT":0},{"OBJECT_NAME":"FLOCK 4BE-22","OBJECT_ID":"2024-149AC","EPOCH":"2026-07-06T16:15:02.102688","CLASSIFICATION_TYPE":"U","MEAN_MOTION":15.41793946,"ECCENTRICITY":0.0004095,"INCLINATION":97.3724,"RA_OF_ASC_NODE":271.4298,"ARG_OF_PERICENTER":178.8391,"MEAN_ANOMALY":181.2866,"EPHEMERIS_TYPE":0,"NORAD_CAT_ID":60494,"ELEMENT_SET_NO":999,"REV_AT_EPOCH":10530,"BSTAR":0.00033702,"MEAN_MOTION_DOT":0.00014193,"MEAN_MOTION_DDOT":0},{"OBJECT_NAME":"FLOCK 4BE-34","OBJECT_ID":"2024-149AD","EPOCH":"2026-07-06T16:40:03.713088","CLASSIFICATION_TYPE":"U","MEAN_MOTION":15.4176477,"ECCENTRICITY":0.0004017,"INCLINATION":97.3774,"RA_OF_ASC_NODE":272.2822,"ARG_OF_PERICENTER":186.4025,"MEAN_ANOMALY":173.7172,"EPHEMERIS_TYPE":0,"NORAD_CAT_ID":60495,"ELEMENT_SET_NO":999,"REV_AT_EPOCH":10533,"BSTAR":0.00031389,"MEAN_MOTION_DOT":0.00013198,"MEAN_MOTION_DDOT":0},{"OBJECT_NAME":"FLOCK 4BE-32","OBJECT_ID":"2024-149AF","EPOCH":"2026-07-06T17:09:12.089664","CLASSIFICATION_TYPE":"U","MEAN_MOTION":15.42872074,"ECCENTRICITY":0.0004199,"INCLINATION":97.3711,"RA_OF_ASC_NODE":271.8613,"ARG_OF_PERICENTER":184.7187,"MEAN_ANOMALY":175.4021,"EPHEMERIS_TYPE":0,"NORAD_CAT_ID":60497,"ELEMENT_SET_NO":999,"REV_AT_EPOCH":10534,"BSTAR":0.00034086,"MEAN_MOTION_DOT":0.00014884,"MEAN_MOTION_DDOT":0},{"OBJECT_NAME":"FLOCK 4BE-11","OBJECT_ID":"2024-149AK","EPOCH":"2026-07-06T16:46:41.066688","CLASSIFICATION_TYPE":"U","MEAN_MOTION":15.43662757,"ECCENTRICITY":0.0004329,"INCLINATION":97.369,"RA_OF_ASC_NODE":272.0942,"ARG_OF_PERICENTER":182.9796,"MEAN_ANOMALY":177.1427,"EPHEMERIS_TYPE":0,"NORAD_CAT_ID":60501,"ELEMENT_SET_NO":999,"REV_AT_EPOCH":10536,"BSTAR":0.00032887,"MEAN_MOTION_DOT":0.00014745,"MEAN_MOTION_DDOT":0},{"OBJECT_NAME":"FLOCK 4BE-24","OBJECT_ID":"2024-149AP","EPOCH":"2026-07-06T16:24:51.361056","CLASSIFICATION_TYPE":"U","MEAN_MOTION":15.43858185,"ECCENTRICITY":0.0004399,"INCLINATION":97.3708,"RA_OF_ASC_NODE":272.3427,"ARG_OF_PERICENTER":196.4371,"MEAN_ANOMALY":163.6735,"EPHEMERIS_TYPE":0,"NORAD_CAT_ID":60505,"ELEMENT_SET_NO":999,"REV_AT_EPOCH":10537,"BSTAR":0.0003734,"MEAN_MOTION_DOT":0.00016869,"MEAN_MOTION_DDOT":0},{"OBJECT_NAME":"FLOCK 4BE-29","OBJECT_ID":"2024-149AT","EPOCH":"2026-07-06T05:28:44.370048","CLASSIFICATION_TYPE":"U","MEAN_MOTION":15.44905523,"ECCENTRICITY":0.0002765,"INCLINATION":97.3804,"RA_OF_ASC_NODE":273.3958,"ARG_OF_PERICENTER":199.1193,"MEAN_ANOMALY":160.9952,"EPHEMERIS_TYPE":0,"NORAD_CAT_ID":60509,"ELEMENT_SET_NO":999,"REV_AT_EPOCH":10535,"BSTAR":0.00084812961,"MEAN_MOTION_DOT":0.00039923,"MEAN_MOTION_DDOT":0},{"OBJECT_NAME":"FLOCK 4BE-2","OBJECT_ID":"2024-149AV","EPOCH":"2026-07-06T04:28:56.490816","CLASSIFICATION_TYPE":"U","MEAN_MOTION":15.55035092,"ECCENTRICITY":0.0004919,"INCLINATION":97.3823,"RA_OF_ASC_NODE":275.0526,"ARG_OF_PERICENTER":198.0045,"MEAN_ANOMALY":162.1036,"EPHEMERIS_TYPE":0,"NORAD_CAT_ID":60511,"ELEMENT_SET_NO":999,"REV_AT_EPOCH":10545,"BSTAR":0.0010058636,"MEAN_MOTION_DOT":0.0006792,"MEAN_MOTION_DDOT":0},{"OBJECT_NAME":"FLOCK 4BE-13","OBJECT_ID":"2024-149AW","EPOCH":"2026-07-06T16:29:12.543936","CLASSIFICATION_TYPE":"U","MEAN_MOTION":15.42445897,"ECCENTRICITY":0.000441,"INCLINATION":97.3713,"RA_OF_ASC_NODE":272.3075,"ARG_OF_PERICENTER":182.1273,"MEAN_ANOMALY":177.9956,"EPHEMERIS_TYPE":0,"NORAD_CAT_ID":60512,"ELEMENT_SET_NO":999,"REV_AT_EPOCH":10537,"BSTAR":0.00028607,"MEAN_MOTION_DOT":0.00012297,"MEAN_MOTION_DDOT":0},{"OBJECT_NAME":"FLOCK 4BE-27","OBJECT_ID":"2024-149AX","EPOCH":"2026-07-06T04:03:43.237152","CLASSIFICATION_TYPE":"U","MEAN_MOTION":15.3480302,"ECCENTRICITY":0.00031021,"INCLINATION":97.382,"RA_OF_ASC_NODE":269.0332,"ARG_OF_PERICENTER":215.0339,"MEAN_ANOMALY":145.07,"EPHEMERIS_TYPE":0,"NORAD_CAT_ID":60513,"ELEMENT_SET_NO":999,"REV_AT_EPOCH":10505,"BSTAR":0.00030556762,"MEAN_MOTION_DOT":0.00010234,"MEAN_MOTION_DDOT":0},{"OBJECT_NAME":"FLOCK 4BE-9","OBJECT_ID":"2024-149AY","EPOCH":"2026-07-06T16:47:20.169600","CLASSIFICATION_TYPE":"U","MEAN_MOTION":15.41414253,"ECCENTRICITY":0.0002895,"INCLINATION":97.3784,"RA_OF_ASC_NODE":272.1676,"ARG_OF_PERICENTER":196.3338,"MEAN_ANOMALY":163.7816,"EPHEMERIS_TYPE":0,"NORAD_CAT_ID":60514,"ELEMENT_SET_NO":999,"REV_AT_EPOCH":10532,"BSTAR":0.00032894,"MEAN_MOTION_DOT":0.00013674,"MEAN_MOTION_DDOT":0},{"OBJECT_NAME":"FLOCK 4BE-6","OBJECT_ID":"2024-149BA","EPOCH":"2026-07-06T16:17:49.728192","CLASSIFICATION_TYPE":"U","MEAN_MOTION":15.40148027,"ECCENTRICITY":0.0003508,"INCLINATION":97.3782,"RA_OF_ASC_NODE":271.468,"ARG_OF_PERICENTER":200.5229,"MEAN_ANOMALY":159.5876,"EPHEMERIS_TYPE":0,"NORAD_CAT_ID":60516,"ELEMENT_SET_NO":999,"REV_AT_EPOCH":10527,"BSTAR":0.00032059,"MEAN_MOTION_DOT":0.00012777,"MEAN_MOTION_DDOT":0},{"OBJECT_NAME":"FLOCK 4BE-14","OBJECT_ID":"2024-149BB","EPOCH":"2026-07-06T17:01:21.648576","CLASSIFICATION_TYPE":"U","MEAN_MOTION":15.41655927,"ECCENTRICITY":0.0004496,"INCLINATION":97.3686,"RA_OF_ASC_NODE":271.6526,"ARG_OF_PERICENTER":205.481,"MEAN_ANOMALY":154.6216,"EPHEMERIS_TYPE":0,"NORAD_CAT_ID":60517,"ELEMENT_SET_NO":999,"REV_AT_EPOCH":10533,"BSTAR":0.00032234,"MEAN_MOTION_DOT":0.00013508,"MEAN_MOTION_DDOT":0},{"OBJECT_NAME":"FLOCK 4BE-1","OBJECT_ID":"2024-149BC","EPOCH":"2026-07-06T04:27:49.556736","CLASSIFICATION_TYPE":"U","MEAN_MOTION":15.43283335,"ECCENTRICITY":0.00041566,"INCLINATION":97.3772,"RA_OF_ASC_NODE":272.471,"ARG_OF_PERICENTER":206.1703,"MEAN_ANOMALY":153.9335,"EPHEMERIS_TYPE":0,"NORAD_CAT_ID":60518,"ELEMENT_SET_NO":999,"REV_AT_EPOCH":10530,"BSTAR":0.0004497566,"MEAN_MOTION_DOT":0.00019953,"MEAN_MOTION_DDOT":0},{"OBJECT_NAME":"FLOCK 4BE-28","OBJECT_ID":"2024-149BD","EPOCH":"2026-07-05T18:47:44.938464","CLASSIFICATION_TYPE":"U","MEAN_MOTION":15.45662812,"ECCENTRICITY":0.00036217,"INCLINATION":97.3743,"RA_OF_ASC_NODE":272.8436,"ARG_OF_PERICENTER":197.6576,"MEAN_ANOMALY":162.4548,"EPHEMERIS_TYPE":0,"NORAD_CAT_ID":60519,"ELEMENT_SET_NO":999,"REV_AT_EPOCH":10531,"BSTAR":0.00067796699,"MEAN_MOTION_DOT":0.00032701,"MEAN_MOTION_DDOT":0},{"OBJECT_NAME":"FLOCK 4BE-5","OBJECT_ID":"2024-149CV","EPOCH":"2026-07-06T16:59:54.559104","CLASSIFICATION_TYPE":"U","MEAN_MOTION":15.40868016,"ECCENTRICITY":0.0003199,"INCLINATION":97.3835,"RA_OF_ASC_NODE":271.903,"ARG_OF_PERICENTER":198.4527,"MEAN_ANOMALY":161.6603,"EPHEMERIS_TYPE":0,"NORAD_CAT_ID":60559,"ELEMENT_SET_NO":999,"REV_AT_EPOCH":10528,"BSTAR":0.00034189,"MEAN_MOTION_DOT":0.00013961,"MEAN_MOTION_DDOT":0}]}
